QIANFAN-65              
1 62795U 25016L   25356.13664760  .00000079  00000+0  10464-3 0  9990
2 62795  88.9766 102.0885 0012435 319.8653  40.1578 13.50986556 48510
QIANFAN-66              
1 62796U 25016M   25356.09141375  .00000179  00000+0  25802-3 0  9991
2 62796  88.9785 102.0650 0013464 314.7665  45.2390 13.50979873 48558
QIANFAN-67              
1 62797U 25016N   25356.09563704  .00000180  00000+0  26013-3 0  9993
2 62797  88.9775 102.0893 0013538 322.4524  37.5681 13.50984043 48528
QIANFAN-68              
1 62798U 25016P   25356.08731558  .00000180  00000+0  26054-3 0  9992
2 62798  88.9779 102.1357 0013559 320.5090  39.5072 13.50986445 48501
QIANFAN-69              
1 62799U 25016Q   25356.10378889  .00000192  00000+0  27823-3 0  9998
2 62799  88.9758 102.0013 0014324 321.5129  38.5000 13.50989228 48548
QIANFAN-70              
1 62800U 25016R   25356.04621346  .00000176  00000+0  25467-3 0  9997
2 62800  88.9779 102.1477 0013795 311.1018  48.8942 13.50980128 48495
QIANFAN-71              
1 62801U 25016S   25356.11608353  .00000161  00000+0  23110-3 0  9996
2 62801  88.9773 102.1194 0014300 325.3570  34.6648 13.50979621 48503
QIANFAN-72              
1 62802U 25016T   25356.13253692  .00000158  00000+0  22609-3 0  9999
2 62802  88.9763 102.1301 0017702 332.3719  27.6490 13.50980000 48493
